<?xml version="1.0" encoding="UTF-8"?>
<ndm xmlns:xsi="http://www.w3.org/2001/XMLSchema-instance" xsi:noNamespaceSchemaLocation="https://sanaregistry.org/r/ndmxml_unqualified/ndmxml-2.0.0-master-2.0.xsd">
<omm id="CCSDS_OMM_VERS" version="2.0">
<header><CREATION_DATE/><ORIGINATOR/></header><body><segment><metadata><OBJECT_NAME>ORBCOMM FM05</OBJECT_NAME><OBJECT_ID>1997-084F</OBJECT_ID><CENTER_NAME>EARTH</CENTER_NAME><REF_FRAME>TEME</REF_FRAME><TIME_SYSTEM>UTC</TIME_SYSTEM><MEAN_ELEMENT_THEORY>SGP4</MEAN_ELEMENT_THEORY></metadata><data><meanElements><EPOCH>2025-03-10T04:39:05.033664</EPOCH><MEAN_MOTION>14.45352653</MEAN_MOTION><ECCENTRICITY>.0000589</ECCENTRICITY><INCLINATION>45.0137</INCLINATION><RA_OF_ASC_NODE>123.1959</RA_OF_ASC_NODE><ARG_OF_PERICENTER>286.9100</ARG_OF_PERICENTER><MEAN_ANOMALY>73.1687</MEAN_ANOMALY></meanElements><tleParameters><EPHEMERIS_TYPE>0</EPHEMERIS_TYPE><CLASSIFICATION_TYPE>U</CLASSIFICATION_TYPE><NORAD_CAT_ID>25117</NORAD_CAT_ID><ELEMENT_SET_NO>999</ELEMENT_SET_NO><REV_AT_EPOCH>42722</REV_AT_EPOCH><BSTAR>.86802E-3</BSTAR><MEAN_MOTION_DOT>.2937E-4</MEAN_MOTION_DOT><MEAN_MOTION_DDOT>0</MEAN_MOTION_DDOT></tleParameters></data></segment></body></omm>
<omm id="CCSDS_OMM_VERS" version="2.0">
<header><CREATION_DATE/><ORIGINATOR/></header><body><segment><metadata><OBJECT_NAME>ORBCOMM FM06</OBJECT_NAME><OBJECT_ID>1997-084G</OBJECT_ID><CENTER_NAME>EARTH</CENTER_NAME><REF_FRAME>TEME</REF_FRAME><TIME_SYSTEM>UTC</TIME_SYSTEM><MEAN_ELEMENT_THEORY>SGP4</MEAN_ELEMENT_THEORY></metadata><data><meanElements><EPOCH>2025-03-09T12:45:45.869760</EPOCH><MEAN_MOTION>14.45513633</MEAN_MOTION><ECCENTRICITY>.00015</ECCENTRICITY><INCLINATION>45.0129</INCLINATION><RA_OF_ASC_NODE>126.2227</RA_OF_ASC_NODE><ARG_OF_PERICENTER>263.0132</ARG_OF_PERICENTER><MEAN_ANOMALY>241.3234</MEAN_ANOMALY></meanElements><tleParameters><EPHEMERIS_TYPE>0</EPHEMERIS_TYPE><CLASSIFICATION_TYPE>U</CLASSIFICATION_TYPE><NORAD_CAT_ID>25118</NORAD_CAT_ID><ELEMENT_SET_NO>999</ELEMENT_SET_NO><REV_AT_EPOCH>42710</REV_AT_EPOCH><BSTAR>.90013E-3</BSTAR><MEAN_MOTION_DOT>.3061E-4</MEAN_MOTION_DOT><MEAN_MOTION_DDOT>0</MEAN_MOTION_DDOT></tleParameters></data></segment></body></omm>
<omm id="CCSDS_OMM_VERS" version="2.0">
<header><CREATION_DATE/><ORIGINATOR/></header><body><segment><metadata><OBJECT_NAME>ORBCOMM FM07</OBJECT_NAME><OBJECT_ID>1997-084H</OBJECT_ID><CENTER_NAME>EARTH</CENTER_NAME><REF_FRAME>TEME</REF_FRAME><TIME_SYSTEM>UTC</TIME_SYSTEM><MEAN_ELEMENT_THEORY>SGP4</MEAN_ELEMENT_THEORY></metadata><data><meanElements><EPOCH>2025-03-09T14:02:56.352480</EPOCH><MEAN_MOTION>14.45466638</MEAN_MOTION><ECCENTRICITY>.0000781</ECCENTRICITY><INCLINATION>45.0124</INCLINATION><RA_OF_ASC_NODE>126.7239</RA_OF_ASC_NODE><ARG_OF_PERICENTER>1.4973</ARG_OF_PERICENTER><MEAN_ANOMALY>358.5880</MEAN_ANOMALY></meanElements><tleParameters><EPHEMERIS_TYPE>0</EPHEMERIS_TYPE><CLASSIFICATION_TYPE>U</CLASSIFICATION_TYPE><NORAD_CAT_ID>25119</NORAD_CAT_ID><ELEMENT_SET_NO>999</ELEMENT_SET_NO><REV_AT_EPOCH>42710</REV_AT_EPOCH><BSTAR>.87869E-3</BSTAR><MEAN_MOTION_DOT>.2982E-4</MEAN_MOTION_DOT><MEAN_MOTION_DDOT>0</MEAN_MOTION_DDOT></tleParameters></data></segment></body></omm>
<omm id="CCSDS_OMM_VERS" version="2.0">
<header><CREATION_DATE/><ORIGINATOR/></header><body><segment><metadata><OBJECT_NAME>ORBCOMM FM03</OBJECT_NAME><OBJECT_ID>1998-007B</OBJECT_ID><CENTER_NAME>EARTH</CENTER_NAME><REF_FRAME>TEME</REF_FRAME><TIME_SYSTEM>UTC</TIME_SYSTEM><MEAN_ELEMENT_THEORY>SGP4</MEAN_ELEMENT_THEORY></metadata><data><meanElements><EPOCH>2025-03-10T03:52:21.115200</EPOCH><MEAN_MOTION>14.34106478</MEAN_MOTION><ECCENTRICITY>.0043938</ECCENTRICITY><INCLINATION>107.9708</INCLINATION><RA_OF_ASC_NODE>292.2329</RA_OF_ASC_NODE><ARG_OF_PERICENTER>60.7844</ARG_OF_PERICENTER><MEAN_ANOMALY>299.7679</MEAN_ANOMALY></meanElements><tleParameters><EPHEMERIS_TYPE>0</EPHEMERIS_TYPE><CLASSIFICATION_TYPE>U</CLASSIFICATION_TYPE><NORAD_CAT_ID>25158</NORAD_CAT_ID><ELEMENT_SET_NO>999</ELEMENT_SET_NO><REV_AT_EPOCH>40998</REV_AT_EPOCH><BSTAR>.64257E-3</BSTAR><MEAN_MOTION_DOT>.1688E-4</MEAN_MOTION_DOT><MEAN_MOTION_DDOT>0</MEAN_MOTION_DDOT></tleParameters></data></segment></body></omm>
<omm id="CCSDS_OMM_VERS" version="2.0">
<header><CREATION_DATE/><ORIGINATOR/></header><body><segment><metadata><OBJECT_NAME>ORBCOMM FM04</OBJECT_NAME><OBJECT_ID>1998-007C</OBJECT_ID><CENTER_NAME>EARTH</CENTER_NAME><REF_FRAME>TEME</REF_FRAME><TIME_SYSTEM>UTC</TIME_SYSTEM><MEAN_ELEMENT_THEORY>SGP4</MEAN_ELEMENT_THEORY></metadata><data><meanElements><EPOCH>2025-03-10T03:54:46.755360</EPOCH><MEAN_MOTION>14.34368075</MEAN_MOTION><ECCENTRICITY>.0039752</ECCENTRICITY><INCLINATION>107.9692</INCLINATION><RA_OF_ASC_NODE>295.3905</RA_OF_ASC_NODE><ARG_OF_PERICENTER>57.9579</ARG_OF_PERICENTER><MEAN_ANOMALY>302.5413</MEAN_ANOMALY></meanElements><tleParameters><EPHEMERIS_TYPE>0</EPHEMERIS_TYPE><CLASSIFICATION_TYPE>U</CLASSIFICATION_TYPE><NORAD_CAT_ID>25159</NORAD_CAT_ID><ELEMENT_SET_NO>999</ELEMENT_SET_NO><REV_AT_EPOCH>41013</REV_AT_EPOCH><BSTAR>.66213E-3</BSTAR><MEAN_MOTION_DOT>.175E-4</MEAN_MOTION_DOT><MEAN_MOTION_DDOT>0</MEAN_MOTION_DDOT></tleParameters></data></segment></body></omm>
<omm id="CCSDS_OMM_VERS" version="2.0">
<header><CREATION_DATE/><ORIGINATOR/></header><body><segment><metadata><OBJECT_NAME>ORBCOMM FM17</OBJECT_NAME><OBJECT_ID>1998-046A</OBJECT_ID><CENTER_NAME>EARTH</CENTER_NAME><REF_FRAME>TEME</REF_FRAME><TIME_SYSTEM>UTC</TIME_SYSTEM><MEAN_ELEMENT_THEORY>SGP4</MEAN_ELEMENT_THEORY></metadata><data><meanElements><EPOCH>2025-03-09T20:11:39.496704</EPOCH><MEAN_MOTION>14.34762427</MEAN_MOTION><ECCENTRICITY>.0002706</ECCENTRICITY><INCLINATION>44.9963</INCLINATION><RA_OF_ASC_NODE>6.3736</RA_OF_ASC_NODE><ARG_OF_PERICENTER>35.8219</ARG_OF_PERICENTER><MEAN_ANOMALY>324.2809</MEAN_ANOMALY></meanElements><tleParameters><EPHEMERIS_TYPE>0</EPHEMERIS_TYPE><CLASSIFICATION_TYPE>U</CLASSIFICATION_TYPE><NORAD_CAT_ID>25413</NORAD_CAT_ID><ELEMENT_SET_NO>999</ELEMENT_SET_NO><REV_AT_EPOCH>38890</REV_AT_EPOCH><BSTAR>.70138E-3</BSTAR><MEAN_MOTION_DOT>.1865E-4</MEAN_MOTION_DOT><MEAN_MOTION_DDOT>0</MEAN_MOTION_DDOT></tleParameters></data></segment></body></omm>
<omm id="CCSDS_OMM_VERS" version="2.0">
<header><CREATION_DATE/><ORIGINATOR/></header><body><segment><metadata><OBJECT_NAME>ORBCOMM FM18</OBJECT_NAME><OBJECT_ID>1998-046B</OBJECT_ID><CENTER_NAME>EARTH</CENTER_NAME><REF_FRAME>TEME</REF_FRAME><TIME_SYSTEM>UTC</TIME_SYSTEM><MEAN_ELEMENT_THEORY>SGP4</MEAN_ELEMENT_THEORY></metadata><data><meanElements><EPOCH>2025-03-09T21:22:15.089088</EPOCH><MEAN_MOTION>14.38083882</MEAN_MOTION><ECCENTRICITY>.0004892</ECCENTRICITY><INCLINATION>44.9924</INCLINATION><RA_OF_ASC_NODE>286.1553</RA_OF_ASC_NODE><ARG_OF_PERICENTER>135.3424</ARG_OF_PERICENTER><MEAN_ANOMALY>224.7819</MEAN_ANOMALY></meanElements><tleParameters><EPHEMERIS_TYPE>0</EPHEMERIS_TYPE><CLASSIFICATION_TYPE>U</CLASSIFICATION_TYPE><NORAD_CAT_ID>25414</NORAD_CAT_ID><ELEMENT_SET_NO>999</ELEMENT_SET_NO><REV_AT_EPOCH>38995</REV_AT_EPOCH><BSTAR>.81602E-3</BSTAR><MEAN_MOTION_DOT>.2354E-4</MEAN_MOTION_DOT><MEAN_MOTION_DDOT>0</MEAN_MOTION_DDOT></tleParameters></data></segment></body></omm>
<omm id="CCSDS_OMM_VERS" version="2.0">
<header><CREATION_DATE/><ORIGINATOR/></header><body><segment><metadata><OBJECT_NAME>ORBCOMM FM19</OBJECT_NAME><OBJECT_ID>1998-046C</OBJECT_ID><CENTER_NAME>EARTH</CENTER_NAME><REF_FRAME>TEME</REF_FRAME><TIME_SYSTEM>UTC</TIME_SYSTEM><MEAN_ELEMENT_THEORY>SGP4</MEAN_ELEMENT_THEORY></metadata><data><meanElements><EPOCH>2025-03-09T21:49:54.842592</EPOCH><MEAN_MOTION>14.37889526</MEAN_MOTION><ECCENTRICITY>.0003725</ECCENTRICITY><INCLINATION>44.9936</INCLINATION><RA_OF_ASC_NODE>287.9067</RA_OF_ASC_NODE><ARG_OF_PERICENTER>126.7076</ARG_OF_PERICENTER><MEAN_ANOMALY>317.7263</MEAN_ANOMALY></meanElements><tleParameters><EPHEMERIS_TYPE>0</EPHEMERIS_TYPE><CLASSIFICATION_TYPE>U</CLASSIFICATION_TYPE><NORAD_CAT_ID>25415</NORAD_CAT_ID><ELEMENT_SET_NO>999</ELEMENT_SET_NO><REV_AT_EPOCH>38991</REV_AT_EPOCH><BSTAR>.80611E-3</BSTAR><MEAN_MOTION_DOT>.2314E-4</MEAN_MOTION_DOT><MEAN_MOTION_DDOT>0</MEAN_MOTION_DDOT></tleParameters></data></segment></body></omm>

</ndm>
