ORBCOMM FM05            
1 25117U 97084F   25069.19380826  .00002937  00000+0  86802-3 0  9990
2 25117  45.0137 123.1959 0000589 286.9100  73.1687 14.45352653427223
ORBCOMM FM06            
1 25118U 97084G   25068.53178090  .00003061  00000+0  90013-3 0  9994
2 25118  45.0129 126.2227 0001500 263.0132 241.3234 14.45513633427103
ORBCOMM FM07            
1 25119U 97084H   25068.58537445  .00002982  00000+0  87869-3 0  9999
2 25119  45.0124 126.7239 0000781   1.4973 358.5880 14.45466638427104
ORBCOMM FM03            
1 25158U 98007B   25069.16135550  .00001688  00000+0  64257-3 0  9992
2 25158 107.9708 292.2329 0043938  60.7844 299.7679 14.34106478409987
ORBCOMM FM04            
1 25159U 98007C   25069.16304115  .00001750  00000+0  66213-3 0  9992
2 25159 107.9692 295.3905 0039752  57.9579 302.5413 14.34368075410137
ORBCOMM FM17            
1 25413U 98046A   25068.84142936  .00001865  00000+0  70138-3 0  9991
2 25413  44.9963   6.3736 0002706  35.8219 324.2809 14.34762427388906
ORBCOMM FM18            
1 25414U 98046B   25068.89045242  .00002354  00000+0  81602-3 0  9991
2 25414  44.9924 286.1553 0004892 135.3424 224.7819 14.38083882389957
ORBCOMM FM19            
1 25415U 98046C   25068.90966253  .00002314  00000+0  80611-3 0  9993
2 25415  44.9936 287.9067 0003725 126.7076 317.7263 14.37889526389911
